{"type": "FeatureCollection", "features": [ {"type": "Feature", "properties": {"norad_id": 35647, "name": "COSMOS 2251 DEB", "group": "cosmos-2251-debris", "lat": -66.87908776664595, "lon": 169.6014682453906, "alt_km": 782.7542224878662, "timestamp": "2025-12-05T19:30:25.963446+00:00", "meta": {"OBJECT_NAME": "COSMOS 2251 DEB", "OBJECT_ID": "1993-036ANN", "EPOCH": "2025-11-30T05:16:45.601536", "MEAN_MOTION": 14.43522503, "ECCENTRICITY": 0.00448795, "INCLINATION": 74.0228, "RA_OF_ASC_NODE": 317.854, "ARG_OF_PERICENTER": 60.3211, "MEAN_ANOMALY": 300.2402, "EPHEMERIS_TYPE": 0, "CLASSIFICATION_TYPE": "U", "NORAD_CAT_ID": 35647, "ELEMENT_SET_NO": 999, "REV_AT_EPOCH": 67483, "BSTAR": 0.00078586372, "MEAN_MOTION_DOT": 2.667e-05, "MEAN_MOTION_DDOT": 0}, "tle": {"line1": "1 35647U 93036ANN 25334.21997224  .00002667  00000+0  78586-3 0  9996", "line2": "2 35647  74.0228 317.8540 0044879  60.3211 300.2402 14.43522503674831"}}, "geometry": {"type": "Point", "coordinates": [169.6014682453906, -66.87908776664595]}}, {"type": "Feature", "properties": {"norad_id": 35650, "name": "COSMOS 2251 DEB", "group": "cosmos-2251-debris", "lat": 26.969658398917137, "lon": -155.7781251517499, "alt_km": 613.4073358284159, "timestamp": "2025-12-05T19:30:25.963456+00:00", "meta": {"OBJECT_NAME": "COSMOS 2251 DEB", "OBJECT_ID": "1993-036ANR", "EPOCH": "2025-12-03T22:17:24.463104", "MEAN_MOTION": 14.83248642, "ECCENTRICITY": 0.00144448, "INCLINATION": 74.0473, "RA_OF_ASC_NODE": 36.3175, "ARG_OF_PERICENTER": 89.0711, "MEAN_ANOMALY": 86.1716, "EPHEMERIS_TYPE": 0, "CLASSIFICATION_TYPE": "U", "NORAD_CAT_ID": 35650, "ELEMENT_SET_NO": 999, "REV_AT_EPOCH": 87503, "BSTAR": 0.0034549097, "MEAN_MOTION_DOT": 0.00028387, "MEAN_MOTION_DDOT": 0}, "tle": {"line1": "1 35650U 93036ANR 25337.92875536  .00028387  00000+0  34549-2 0  9999", "line2": "2 35650  74.0473  36.3175 0014444  89.0711  86.1716 14.83248642875038"}}, "geometry": {"type": "Point", "coordinates": [-155.7781251517499, 26.969658398917137]}}, {"type": "Feature", "properties": {"norad_id": 35660, "name": "COSMOS 2251 DEB", "group": "cosmos-2251-debris", "lat": -23.85947899427089, "lon": -26.489315421293476, "alt_km": 731.2325688767078, "timestamp": "2025-12-05T19:30:25.963466+00:00", "meta": {"OBJECT_NAME": "COSMOS 2251 DEB", "OBJECT_ID": "1993-036APB", "EPOCH": "2025-11-30T04:59:11.152608", "MEAN_MOTION": 14.49858309, "ECCENTRICITY": 0.00181724, "INCLINATION": 74.0397, "RA_OF_ASC_NODE": 156.7551, "ARG_OF_PERICENTER": 306.9367, "MEAN_ANOMALY": 174.3672, "EPHEMERIS_TYPE": 0, "CLASSIFICATION_TYPE": "U", "NORAD_CAT_ID": 35660, "ELEMENT_SET_NO": 999, "REV_AT_EPOCH": 65689, "BSTAR": 0.00042239347, "MEAN_MOTION_DOT": 1.607e-05, "MEAN_MOTION_DDOT": 0}, "tle": {"line1": "1 35660U 93036APB 25334.20776797  .00001607  00000+0  42239-3 0  9999", "line2": "2 35660  74.0397 156.7551 0018172 306.9367 174.3672 14.49858309656890"}}, "geometry": {"type": "Point", "coordinates": [-26.489315421293476, -23.85947899427089]}}, {"type": "Feature", "properties": {"norad_id": 35661, "name": "COSMOS 2251 DEB", "group": "cosmos-2251-debris", "lat": 10.854221522074397, "lon": 96.68677844284647, "alt_km": 671.9428582946102, "timestamp": "2025-12-05T19:30:25.963476+00:00", "meta": {"OBJECT_NAME": "COSMOS 2251 DEB", "OBJECT_ID": "1993-036APC", "EPOCH": "2025-12-04T14:22:44.003424", "MEAN_MOTION": 14.86330148, "ECCENTRICITY": 0.0088994, "INCLINATION": 74.0134, "RA_OF_ASC_NODE": 95.9529, "ARG_OF_PERICENTER": 202.0903, "MEAN_ANOMALY": 157.6434, "EPHEMERIS_TYPE": 0, "CLASSIFICATION_TYPE": "U", "NORAD_CAT_ID": 35661, "ELEMENT_SET_NO": 999, "REV_AT_EPOCH": 87747, "BSTAR": 0.0023699, "MEAN_MOTION_DOT": 0.00022477, "MEAN_MOTION_DDOT": 0}, "tle": {"line1": "1 35661U 93036APC 25338.59912041  .00022477  00000+0  23699-2 0  9996", "line2": "2 35661  74.0134  95.9529 0088994 202.0903 157.6434 14.86330148877476"}}, "geometry": {"type": "Point", "coordinates": [96.68677844284647, 10.854221522074397]}}, {"type": "Feature", "properties": {"norad_id": 35663, "name": "COSMOS 2251 DEB", "group": "cosmos-2251-debris", "lat": 53.79490751970847, "lon": 161.06799117414707, "alt_km": 674.8780548066279, "timestamp": "2025-12-05T19:30:25.963486+00:00", "meta": {"OBJECT_NAME": "COSMOS 2251 DEB", "OBJECT_ID": "1993-036APE", "EPOCH": "2025-11-30T11:26:45.384288", "MEAN_MOTION": 14.65332391, "ECCENTRICITY": 0.00074535, "INCLINATION": 74.0171, "RA_OF_ASC_NODE": 148.2949, "ARG_OF_PERICENTER": 219.2944, "MEAN_ANOMALY": 140.7685, "EPHEMERIS_TYPE": 0, "CLASSIFICATION_TYPE": "U", "NORAD_CAT_ID": 35663, "ELEMENT_SET_NO": 999, "REV_AT_EPOCH": 73202, "BSTAR": 0.0015821861, "MEAN_MOTION_DOT": 8.525e-05, "MEAN_MOTION_DDOT": 0}, "tle": {"line1": "1 35663U 93036APE 25334.47691417  .00008525  00000+0  15822-2 0  9999", "line2": "2 35663  74.0171 148.2949 0007453 219.2944 140.7685 14.65332391732024"}}, "geometry": {"type": "Point", "coordinates": [161.06799117414707, 53.79490751970847]}}, {"type": "Feature", "properties": {"norad_id": 35667, "name": "COSMOS 2251 DEB", "group": "cosmos-2251-debris", "lat": -61.2009264821108, "lon": 4.648311013382032, "alt_km": 687.9180253725854, "timestamp": "2025-12-05T19:30:25.963496+00:00", "meta": {"OBJECT_NAME": "COSMOS 2251 DEB", "OBJECT_ID": "1993-036APJ", "EPOCH": "2025-12-03T05:32:00.225024", "MEAN_MOTION": 14.59863315, "ECCENTRICITY": 0.0020461, "INCLINATION": 74.0542, "RA_OF_ASC_NODE": 158.2289, "ARG_OF_PERICENTER": 220.1527, "MEAN_ANOMALY": 139.8128, "EPHEMERIS_TYPE": 0, "CLASSIFICATION_TYPE": "U", "NORAD_CAT_ID": 35667, "ELEMENT_SET_NO": 999, "REV_AT_EPOCH": 70664, "BSTAR": 0.0013542, "MEAN_MOTION_DOT": 6.475e-05, "MEAN_MOTION_DDOT": 0}, "tle": {"line1": "1 35667U 93036APJ 25337.23055816  .00006475  00000+0  13542-2 0  9996", "line2": "2 35667  74.0542 158.2289 0020461 220.1527 139.8128 14.59863315706648"}}, "geometry": {"type": "Point", "coordinates": [4.648311013382032, -61.2009264821108]}}, {"type": "Feature", "properties": {"norad_id": 35668, "name": "COSMOS 2251 DEB", "group": "cosmos-2251-debris", "lat": -70.60130347872429, "lon": 108.14693563448245, "alt_km": 678.4406970314812, "timestamp": "2025-12-05T19:30:25.963506+00:00", "meta": {"OBJECT_NAME": "COSMOS 2251 DEB", "OBJECT_ID": "1993-036APK", "EPOCH": "2025-12-04T09:31:18.055200", "MEAN_MOTION": 14.63947541, "ECCENTRICITY": 0.0082977, "INCLINATION": 74.0461, "RA_OF_ASC_NODE": 236.5342, "ARG_OF_PERICENTER": 343.6031, "MEAN_ANOMALY": 16.2454, "EPHEMERIS_TYPE": 0, "CLASSIFICATION_TYPE": "U", "NORAD_CAT_ID": 35668, "ELEMENT_SET_NO": 999, "REV_AT_EPOCH": 87525, "BSTAR": 0.00065787, "MEAN_MOTION_DOT": 3.589e-05, "MEAN_MOTION_DDOT": 0}, "tle": {"line1": "1 35668U 93036APK 25338.39673675  .00003589  00000+0  65787-3 0  9996", "line2": "2 35668  74.0461 236.5342 0082977 343.6031  16.2454 14.63947541875253"}}, "geometry": {"type": "Point", "coordinates": [108.14693563448245, -70.60130347872429]}}, {"type": "Feature", "properties": {"norad_id": 35669, "name": "COSMOS 2251 DEB", "group": "cosmos-2251-debris", "lat": 22.83160041002779, "lon": 177.65338160682455, "alt_km": 1084.5071694935104, "timestamp": "2025-12-05T19:30:25.963517+00:00", "meta": {"OBJECT_NAME": "COSMOS 2251 DEB", "OBJECT_ID": "1993-036APL", "EPOCH": "2025-12-03T21:23:42.149184", "MEAN_MOTION": 13.57134195, "ECCENTRICITY": 0.0387239, "INCLINATION": 73.852, "RA_OF_ASC_NODE": 173.7821, "ARG_OF_PERICENTER": 287.3475, "MEAN_ANOMALY": 68.5633, "EPHEMERIS_TYPE": 0, "CLASSIFICATION_TYPE": "U", "NORAD_CAT_ID": 35669, "ELEMENT_SET_NO": 999, "REV_AT_EPOCH": 60669, "BSTAR": 0.0017031, "MEAN_MOTION_DOT": 1.95e-05, "MEAN_MOTION_DDOT": 0}, "tle": {"line1": "1 35669U 93036APL 25337.89146006  .00001950  00000+0  17031-2 0  9992", "line2": "2 35669  73.8520 173.7821 0387239 287.3475  68.5633 13.57134195606690"}}, "geometry": {"type": "Point", "coordinates": [177.65338160682455, 22.83160041002779]}}, {"type": "Feature", "properties": {"norad_id": 35670, "name": "COSMOS 2251 DEB", "group": "cosmos-2251-debris", "lat": 14.602703742469902, "lon": -105.76345398144372, "alt_km": 601.2190104747606, "timestamp": "2025-12-05T19:30:25.963528+00:00", "meta": {"OBJECT_NAME": "COSMOS 2251 DEB", "OBJECT_ID": "1993-036APM", "EPOCH": "2025-12-03T00:51:50.152032", "MEAN_MOTION": 14.93482129, "ECCENTRICITY": 0.00369334, "INCLINATION": 73.8945, "RA_OF_ASC_NODE": 84.1864, "ARG_OF_PERICENTER": 48.0359, "MEAN_ANOMALY": 312.396, "EPHEMERIS_TYPE": 0, "CLASSIFICATION_TYPE": "U", "NORAD_CAT_ID": 35670, "ELEMENT_SET_NO": 999, "REV_AT_EPOCH": 87582, "BSTAR": 0.001906882, "MEAN_MOTION_DOT": 0.00020358, "MEAN_MOTION_DDOT": 0}, "tle": {"line1": "1 35670U 93036APM 25337.03599713  .00020358  00000+0  19069-2 0  9993", "line2": "2 35670  73.8945  84.1864 0036933  48.0359 312.3960 14.93482129875820"}}, "geometry": {"type": "Point", "coordinates": [-105.76345398144372, 14.602703742469902]}}, {"type": "Feature", "properties": {"norad_id": 35671, "name": "COSMOS 2251 DEB", "group": "cosmos-2251-debris", "lat": -60.09405359802725, "lon": 62.41581618103041, "alt_km": 711.8483675433099, "timestamp": "2025-12-05T19:30:25.963539+00:00", "meta": {"OBJECT_NAME": "COSMOS 2251 DEB", "OBJECT_ID": "1993-036APN", "EPOCH": "2025-12-05T00:28:25.277664", "MEAN_MOTION": 14.48327214, "ECCENTRICITY": 0.00415227, "INCLINATION": 74.0176, "RA_OF_ASC_NODE": 93.7893, "ARG_OF_PERICENTER": 269.1558, "MEAN_ANOMALY": 212.9469, "EPHEMERIS_TYPE": 0, "CLASSIFICATION_TYPE": "U", "NORAD_CAT_ID": 35671, "ELEMENT_SET_NO": 999, "REV_AT_EPOCH": 86651, "BSTAR": 0.0004501209, "MEAN_MOTION_DOT": 1.673e-05, "MEAN_MOTION_DDOT": 0}, "tle": {"line1": "1 35671U 93036APN 25339.01973701  .00001673  00000+0  45012-3 0  9994", "line2": "2 35671  74.0176  93.7893 0041522 269.1558 212.9469 14.48327214866513"}}, "geometry": {"type": "Point", "coordinates": [62.41581618103041, -60.09405359802725]}}]}